{
    "links": {
        "self": "http://www.neowsapp.com/rest/v1/neo/3730727?api_key=iIulBulltgU6a56xZRHN4H3l9WmuAYTsLGpBGhQ2"
    },
    "id": "3730727",
    "neo_reference_id": "3730727",
    "name": "(2015 TM238)",
    "designation": "2015 TM238",
    "nasa_jpl_url": "http://ssd.jpl.nasa.gov/sbdb.cgi?sstr=3730727",
    "absolute_magnitude_h": 23.6,
    "estimated_diameter": {
        "kilometers": {
            "estimated_diameter_min": 0.0506471459,
            "estimated_diameter_max": 0.1132504611
        },
        "meters": {
            "estimated_diameter_min": 50.6471458835,
            "estimated_diameter_max": 113.2504610618
        },
        "miles": {
            "estimated_diameter_min": 0.0314706677,
            "estimated_diameter_max": 0.0703705522
        },
        "feet": {
            "estimated_diameter_min": 166.1651821003,
            "estimated_diameter_max": 371.5566426699
        }
    },
    "is_potentially_hazardous_asteroid": false,
    "close_approach_data": [
        {
            "close_approach_date": "2015-10-07",
            "close_approach_date_full": "2015-Oct-07 03:55",
            "epoch_date_close_approach": 1444190100000,
            "relative_velocity": {
                "kilometers_per_second": "11.12727878",
                "kilometers_per_hour": "40058.2036081483",
                "miles_per_hour": "24890.6099030742"
            },
            "miss_distance": {
                "astronomical": "0.0391649711",
                "lunar": "15.2351737579",
                "kilometers": "5858996.255171557",
                "miles": "3640611.4555672066"
            },
            "orbiting_body": "Earth"
        },
        {
            "close_approach_date": "2139-09-29",
            "close_approach_date_full": "2139-Sep-29 06:28",
            "epoch_date_close_approach": 5356564080000,
            "relative_velocity": {
                "kilometers_per_second": "9.6507093006",
                "kilometers_per_hour": "34742.5534821455",
                "miles_per_hour": "21587.6716345031"
            },
            "miss_distance": {
                "astronomical": "0.0628315633",
                "lunar": "24.4414781237",
                "kilometers": "9399468.038450171",
                "miles": "5840558.6087915198"
            },
            "orbiting_body": "Earth"
        }
    ],
    "orbital_data": {
        "orbit_id": "18",
        "orbit_determination_date": "2017-04-06 08:31:14",
        "first_observation_date": "2015-10-12",
        "last_observation_date": "2015-11-11",
        "data_arc_in_days": 30,
        "observations_used": 114,
        "orbit_uncertainty": "7",
        "minimum_orbit_intersection": ".0397125",
        "jupiter_tisserand_invariant": "3.689",
        "epoch_osculation": "2459000.5",
        "eccentricity": ".5194038312580627",
        "semi_major_axis": "1.964114511563369",
        "inclination": "8.145111102499374",
        "ascending_node_longitude": "26.26209706508228",
        "orbital_period": "1005.422577562179",
        "perihelion_distance": ".9439459092277969",
        "perihelion_argument": "307.7299573915717",
        "aphelion_distance": "2.984283113898942",
        "perihelion_time": "2459282.864746985589",
        "mean_anomaly": "258.8969303222896",
        "mean_motion": ".3580584005512211",
        "equinox": "J2000",
        "orbit_class": {
            "orbit_class_type": "APO",
            "orbit_class_description": "Near-Earth asteroid orbits which cross the Earth’s orbit similar to that of 1862 Apollo",
            "orbit_class_range": "a (semi-major axis) > 1.0 AU; q (perihelion) < 1.017 AU"
        }
    },
    "is_sentry_object": false
}